[{"OBJECT_NAME":"STARLINK-31326","OBJECT_ID":"2024-020B","EPOCH":"2026-03-09T22:27:48.001536","MEAN_MOTION":15.30178575,"ECCENTRICITY":9.496e-5,"INCLINATION":53.1604,"RA_OF_ASC_NODE":321.6402,"ARG_OF_PERICENTER":95.7811,"MEAN_ANOMALY":264.3299,"EPHEMERIS_TYPE":0,"CLASSIFICATION_TYPE":"U","NORAD_CAT_ID":58877,"ELEMENT_SET_NO":999,"REV_AT_EPOCH":11810,"BSTAR":-3.6304298e-5,"MEAN_MOTION_DOT":-1.433e-5,"MEAN_MOTION_DDOT":0},{"OBJECT_NAME":"NOAA 17 DEB","OBJECT_ID":"2002-032DK","EPOCH":"2026-03-06T06:53:22.349472","MEAN_MOTION":15.29547844,"ECCENTRICITY":0.00135803,"INCLINATION":98.6735,"RA_OF_ASC_NODE":77.6727,"ARG_OF_PERICENTER":131.2945,"MEAN_ANOMALY":228.9463,"EPHEMERIS_TYPE":0,"CLASSIFICATION_TYPE":"U","NORAD_CAT_ID":49481,"ELEMENT_SET_NO":999,"REV_AT_EPOCH":24998,"BSTAR":0.011623019,"MEAN_MOTION_DOT":0.00349096,"MEAN_MOTION_DDOT":0}]
